COSMOS 1953             
1 19210U 88050A   16037.82166386  .00001295  00000-0  90277-4 0  9997
2 19210  82.5202 154.3822 0014632 148.6679 211.5422 15.04519099503183
SL-8 R/B                
1 19257U 88053B   16037.61987568  .00000068  00000-0  31392-4 0  9991
2 19257  74.0482  49.3781 0019221  61.3854  68.6966 14.37284131447421
COSMOS 1975             
1 19573U 88093A   16038.17071202  .00001085  00000-0  77526-4 0  9996
2 19573  82.5204 105.1473 0014728 180.5718 179.5494 15.03422554485266
SL-14 R/B               
1 19574U 88093B   16038.08065984  .00000201  00000-0  21720-4 0  9991
2 19574  82.5298 248.8561 0020614 315.1043 158.3510 14.83114255475919
SL-16 R/B               
1 19650U 88102B   16037.37347650  .00000239  00000-0  14613-3 0  9994
2 19650  71.0015 339.7334 0015861 224.7063 135.2782 14.15728409405675
INTERCOSMOS 24          
1 20261U 89080A   16038.39138255  .00000444  00000-0  12555-3 0  9993
2 20261  82.5982 331.0677 1205444 159.9309 205.3743 12.55709658203737
SL-14 R/B               
1 20262U 89080C   16038.10422366  .00000228  00000-0  69139-4 0  9993
2 20262  82.5954  13.7922 1236752 307.5374  41.9434 12.48784314199798
DELTA 1 R/B             
1 20323U 89089B   16038.15425612  .00000105  00000-0  36476-4 0  9994
2 20323  97.0676  58.0186 0071433 200.3350 159.5000 14.48084593382937
DELTA 2 R/B(1)          
1 20453U 90008B   16038.00178175  .00004293  00000-0  25444-3 0  9998
2 20453  35.6249 261.2491 0298112   7.1546 353.3293 14.80731173374542
COSMOS 2058             
1 20465U 90010A   16037.88515892  .00001042  00000-0  88029-4 0  9998
2 20465  82.4908   4.8685 0016178 160.0032 200.1828 14.96999784411076
SL-14 R/B               
1 20466U 90010B   16037.52545544  .00000209  00000-0  23804-4 0  9991
2 20466  82.5043 117.2906 0020980 165.6869 194.4944 14.81185046403974
SL-14 R/B               
1 20511U 90018B   16038.16352332  .00000223  00000-0  26541-4 0  9999
2 20511  82.5206  56.0065 0016166 302.4884 124.7788 14.79846943398704
HST                     
1 20580U 90037B   16038.42540797  .00001704  00000-0  96362-4 0  9992
2 20580  28.4709  42.1085 0002656 240.0077 239.5257 15.08124532215356
SL-16 R/B               
1 20625U 90046B   16037.76504501  .00000294  00000-0  17787-3 0  9997
2 20625  70.9994 111.0062 0013202 149.1006 349.6145 14.14590726327637
COSMOS 2084             
1 20663U 90055A   16037.64193871  .00000574  00000-0  69956-4 0  9997
2 20663  62.7932  84.7000 0110831  39.7352 321.1792 14.90979798385756
SL-6 R/B(2)             
1 20666U 90055D   16038.42936730  .00001073  00000-0  11011-3 0  9999
2 20666  62.7854   2.3181 0125841  60.1906 301.1629 14.91372291387225
SL-8 R/B                
1 20775U 90078B   16037.85269109  .00003885  00000-0  19511-3 0  9996
2 20775  82.9299  94.0940 0604063  67.8802 298.5359 14.27243161277871
SL-8 R/B                
1 21088U 91006B   16038.53203638  .00000144  00000-0  13102-3 0  9992
2 21088  82.9412  28.6840 0021137 267.9214 240.4389 13.77025734257384
OKEAN-3                 
1 21397U 91039A   16038.54364503  .00000856  00000-0  81513-4 0  9993
2 21397  82.5198 249.0756 0019569  94.1084 266.2373 14.92051330335868
COSMOS 2151             
1 21422U 91042A   16037.87988135  .00000640  00000-0  61274-4 0  9997
2 21422  82.5019 358.6336 0015155 145.8574 214.3623 14.91515182334517
SL-14 R/B               
1 21423U 91042B   16038.16815098  .00000179  00000-0  20779-4 0  9990
2 21423  82.4915  64.9191 0019209  76.4336 283.9015 14.79600423329236
ERS-1                   
1 21574U 91050A   16037.50015318  .00000196  00000-0  79514-4 0  9990
2 21574  98.3992 348.3758 0033230   1.4457 358.6821 14.37446526286237
ARIANE 40 R/B           
1 21610U 91050F   16038.17338604  .00000084  00000-0  40712-4 0  9995
2 21610  98.6747  83.7272 0002947   4.5593  31.6430 14.40697402288697
INTERCOSMOS 25          
1 21819U 91086A   16038.08711414  .00001273  00000-0  24196-3 0  9997
2 21819  82.5608   1.2430 1527150  62.1588 312.5765 12.04025768 52565
SL-14 R/B               
1 21820U 91086B   16037.46007146  .00000332  00000-0  66215-4 0  9994
2 21820  82.5592  51.4429 1577415 232.4084 112.3281 11.93099919 47543
SL-8 R/B                
1 21876U 92008B   16037.55114763  .00000049  00000-0  34884-4 0  9996
2 21876  82.9284 126.3188 0034157 342.7934 134.1734 13.75571300203101
SL-8 R/B                
1 21938U 92020B   16037.51951309 -.00000013  00000-0 -29451-4 0  9997
2 21938  82.9304   9.1858 0030059 135.8789   3.4413 13.75230717195028
SL-16 R/B               
1 22220U 92076B   16038.50011485  .00000055  00000-0  51759-4 0  9995
2 22220  71.0007  22.6181 0014864 302.3775 193.4786 14.16391343200583
SL-16 R/B               
1 22285U 92093B   16038.53939878  .00000222  00000-0  13927-3 0  9993
2 22285  71.0218 172.0125 0004212 193.1335 166.9678 14.14990209192422
COSMOS 2228             
1 22286U 92094A   16038.22118247  .00000634  00000-0  67389-4 0  9999
2 22286  82.5226 121.6132 0019799 331.2379  28.7745 14.87326972248765
SL-16 R/B               
1 22566U 93016B   16038.13504582  .00000105  00000-0  78631-4 0  9991
2 22566  71.0083  28.1410 0010143 181.5938 178.5155 14.14924338181104
COSMOS 2242             
1 22626U 93024A   16037.77007539  .00000668  00000-0  71104-4 0  9998
2 22626  82.5244 149.7046 0018314 332.1265  27.8969 14.87334257232355
SL-16 R/B               
1 22803U 93059B   16038.01406638  .00000181  00000-0  11445-3 0  9995
2 22803  70.9883 214.9583 0015280  57.3184 302.9411 14.16734394158004
ARIANE 40 R/B           
1 22830U 93061H   16037.65040903  .00000014  00000-0  22961-4 0  9997
2 22830  98.8818  35.5778 0010024 300.8374 184.6098 14.31395630167214
COSMOS 2278             
1 23087U 94023A   16037.84819815 -.00000183  00000-0 -71758-4 0  9995
2 23087  71.0559 316.3122 0011609 257.3314 102.6511 14.13709699124348
SL-16 R/B               
1 23088U 94023B   16038.52462922  .00000303  00000-0  18233-3 0  9995
2 23088  70.9978 242.3688 0002416 171.8919 188.2243 14.14636424125444
SL-16 R/B               
1 23343U 94074B   16038.12645836  .00000087  00000-0  20096-4 0  9998
2 23343  98.2055  62.5971 0006134 213.5977 187.5323 14.76629845143621
SL-16 R/B               
1 23405U 94077B   16036.80997304 -.00000136  00000-0 -45174-4 0  9994
2 23405  70.9821 181.1189 0003506 316.2597  43.8248 14.15172358 94895
ERS-2                   
1 23560U 95021A   16038.13355356  .00005572  00000-0  27867-3 0  9994
2 23560  98.5094 320.5267 0003775 164.7996 195.3348 15.17924301100054
ARIANE 40+ R/B          
1 23561U 95021B   16038.57456659  .00000154  00000-0  66514-4 0  9995
2 23561  98.7585  23.2289 0005977 289.7356 179.1430 14.37702108 90035
SL-16 R/B               
1 23705U 95058B   16038.43317050 -.00000273  00000-0 -11609-3 0  9999
2 23705  71.0241 349.1315 0013917 324.2728  35.7462 14.15082022 47057
SL-16 R/B               
1 24298U 96051B   16038.48212990 -.00000061  00000-0 -67675-5 0  9994
2 24298  70.8344  27.0353 0018350 207.7949 152.2192 14.12387343  1827
ORBVIEW 2 (SEASTAR)     
1 24883U 97037A   16037.79018773  .00000101  00000-0  52532-4 0  9993
2 24883  98.5122 147.8778 0003316 124.6668 235.4830 14.33282086980797
SL-16 R/B               
1 25400U 98043G   16037.50639493  .00000010  00000-0  21990-4 0  9997
2 25400  98.4205 357.5292 0009031 315.0972  44.9477 14.25368585914314
SL-16 R/B               
1 25407U 98045B   16037.37597238  .00000233  00000-0  14312-3 0  9997
2 25407  71.0125   5.4405 0009945 249.2627 110.7431 14.15735670905867
ISS (ZARYA)             
1 25544U 98067A   16038.45608887  .00010063  00000-0  15695-3 0  9993
2 25544  51.6448 349.9764 0007011  91.1767  13.7239 15.54483972984646
SL-8 R/B                
1 25723U 99022C   16037.17716543  .00011706  00000-0  24381-3 0  9998
2 25723  48.4193 282.4334 0013440 170.1384 331.7772 15.45852784929382
CZ-4B R/B               
1 25732U 99025C   16038.57443181  .00000008  00000-0  25804-4 0  9996
2 25732  98.9632  29.0100 0038307  62.9425  43.8864 14.17597950866415
OKEAN-O                 
1 25860U 99039A   16038.05049081  .00000346  00000-0  57424-4 0  9995
2 25860  98.1277  11.9535 0000891  74.3605 326.6705 14.76276526890635
SL-16 R/B               
1 25861U 99039B   16037.97787949  .00000176  00000-0  31539-4 0  9998
2 25861  98.0361   2.1443 0014497 237.9953 166.0529 14.78268959892465
TERRA                   
1 25994U 99068A   16038.41112815  .00000173  00000-0  48479-4 0  9999
2 25994  98.2011 114.5560 0001312 104.3451 255.7893 14.57119491858472
SL-14 R/B               
1 26874U 01032B   16037.85230910  .00023409  00000-0  16153-3 0  9995
2 26874  82.4604  65.0393 0007386 358.0133   2.1100 15.74372634814937
ENVISAT                 
1 27386U 02009A   16038.15917836  .00000016  00000-0  19316-4 0  9996
2 27386  98.3023  96.1511 0001019  76.3921 283.7381 14.37853794729792
IDEFIX & ARIANE 42P R/B 
1 27422U 02021B   16038.50835352  .00000023  00000-0  25062-4 0  9995
2 27422  98.2386  60.1996 0011155 265.5714  94.4194 14.29229791715874
AQUA                    
1 27424U 02022A   16038.17710916  .00000310  00000-0  78860-4 0  9992
2 27424  98.2210 340.6457 0000866  99.0301  13.8847 14.57119942732044
CZ-4B R/B               
1 27432U 02024C   16037.85793164  .00000009  00000-0  28224-4 0  9997
2 27432  98.9189   4.5265 0050562 359.1963  30.2828 14.14003464708656
MIDORI II (ADEOS-II)    
1 27597U 02056A   16038.06344231  .00000123  00000-0  67351-4 0  9996
2 27597  98.3087  24.5582 0001468  43.5351 357.9893 14.27177851684659
H-2A R/B                
1 27601U 02056E   16037.30487325  .00000099  00000-0  51822-4 0  9998
2 27601  98.4317 114.6869 0071500 328.2928  72.7534 14.31683736686709
CZ-4B R/B               
1 28059U 03049C   16037.75287140  .00000090  00000-0  34083-4 0  9992
2 28059  98.6315 265.7748 0049547 321.1274  80.2405 14.52419759651611
CZ-2C R/B               
1 28222U 04012C   16038.16590022  .00001882  00000-0  12265-3 0  9994
2 28222  97.4573   0.6054 0051731  86.6995  33.8944 15.08006437645828
